CCSDS_OMM_VERS = 2.0
CREATION_DATE  = 
ORIGINATOR     = 

OBJECT_NAME    = STARLINK-37022
OBJECT_ID      = 2026-044A
CENTER_NAME    = EARTH
REF_FRAME      = TEME
TIME_SYSTEM    = UTC
MEAN_ELEMENT_THEORY = SGP/SGP4

EPOCH          = 2026-04-04T22:00:01.999584
MEAN_MOTION    = 15.45023050
ECCENTRICITY   = .00015839
INCLINATION    = 97.2852
RA_OF_ASC_NODE = 56.1659
ARG_OF_PERICENTER = 91.8766
MEAN_ANOMALY   = 12.6640

EPHEMERIS_TYPE = 0
CLASSIFICATION_TYPE = U
NORAD_CAT_ID   = 68101
ELEMENT_SET_NO = 999
REV_AT_EPOCH   = 561
BSTAR          = -.45373549E-1
MEAN_MOTION_DOT = -.1917735E-1
MEAN_MOTION_DDOT = 0

CCSDS_OMM_VERS = 2.0
CREATION_DATE  = 
ORIGINATOR     = 

OBJECT_NAME    = STARLINK-37046
OBJECT_ID      = 2026-044B
CENTER_NAME    = EARTH
REF_FRAME      = TEME
TIME_SYSTEM    = UTC
MEAN_ELEMENT_THEORY = SGP/SGP4

EPOCH          = 2026-04-04T22:00:01.999584
MEAN_MOTION    = 15.44782681
ECCENTRICITY   = .00020598
INCLINATION    = 97.2853
RA_OF_ASC_NODE = 56.1738
ARG_OF_PERICENTER = 76.7885
MEAN_ANOMALY   = 45.0014

EPHEMERIS_TYPE = 0
CLASSIFICATION_TYPE = U
NORAD_CAT_ID   = 68102
ELEMENT_SET_NO = 999
REV_AT_EPOCH   = 561
BSTAR          = -.45307017E-1
MEAN_MOTION_DOT = -.1901353E-1
MEAN_MOTION_DDOT = 0

CCSDS_OMM_VERS = 2.0
CREATION_DATE  = 
ORIGINATOR     = 

OBJECT_NAME    = STARLINK-37018
OBJECT_ID      = 2026-044C
CENTER_NAME    = EARTH
REF_FRAME      = TEME
TIME_SYSTEM    = UTC
MEAN_ELEMENT_THEORY = SGP/SGP4

EPOCH          = 2026-04-04T22:00:01.999584
MEAN_MOTION    = 15.44884698
ECCENTRICITY   = .00018999
INCLINATION    = 97.2854
RA_OF_ASC_NODE = 56.1800
ARG_OF_PERICENTER = 77.0349
MEAN_ANOMALY   = 58.7983

EPHEMERIS_TYPE = 0
CLASSIFICATION_TYPE = U
NORAD_CAT_ID   = 68103
ELEMENT_SET_NO = 999
REV_AT_EPOCH   = 557
BSTAR          = -.45298883E-1
MEAN_MOTION_DOT = -.1906933E-1
MEAN_MOTION_DDOT = 0

CCSDS_OMM_VERS = 2.0
CREATION_DATE  = 
ORIGINATOR     = 

OBJECT_NAME    = STARLINK-37041
OBJECT_ID      = 2026-044D
CENTER_NAME    = EARTH
REF_FRAME      = TEME
TIME_SYSTEM    = UTC
MEAN_ELEMENT_THEORY = SGP/SGP4

EPOCH          = 2026-04-04T22:00:01.999584
MEAN_MOTION    = 15.45267557
ECCENTRICITY   = .00022104
INCLINATION    = 97.2856
RA_OF_ASC_NODE = 56.1911
ARG_OF_PERICENTER = 86.5911
MEAN_ANOMALY   = 75.4290

EPHEMERIS_TYPE = 0
CLASSIFICATION_TYPE = U
NORAD_CAT_ID   = 68104
ELEMENT_SET_NO = 999
REV_AT_EPOCH   = 557
BSTAR          = -.4464628E-1
MEAN_MOTION_DOT = -.1904711E-1
MEAN_MOTION_DDOT = 0

CCSDS_OMM_VERS = 2.0
CREATION_DATE  = 
ORIGINATOR     = 

OBJECT_NAME    = STARLINK-37021
OBJECT_ID      = 2026-044E
CENTER_NAME    = EARTH
REF_FRAME      = TEME
TIME_SYSTEM    = UTC
MEAN_ELEMENT_THEORY = SGP/SGP4

EPOCH          = 2026-04-04T22:00:01.999584
MEAN_MOTION    = 15.48986709
ECCENTRICITY   = .00019729
INCLINATION    = 97.2852
RA_OF_ASC_NODE = 56.1755
ARG_OF_PERICENTER = 85.9672
MEAN_ANOMALY   = 48.1943

EPHEMERIS_TYPE = 0
CLASSIFICATION_TYPE = U
NORAD_CAT_ID   = 68105
ELEMENT_SET_NO = 999
REV_AT_EPOCH   = 557
BSTAR          = -.40737046E-1
MEAN_MOTION_DOT = -.197008E-1
MEAN_MOTION_DDOT = 0

CCSDS_OMM_VERS = 2.0
CREATION_DATE  = 
ORIGINATOR     = 

OBJECT_NAME    = STARLINK-37024
OBJECT_ID      = 2026-044F
CENTER_NAME    = EARTH
REF_FRAME      = TEME
TIME_SYSTEM    = UTC
MEAN_ELEMENT_THEORY = SGP/SGP4

EPOCH          = 2026-04-04T22:00:01.999584
MEAN_MOTION    = 15.46207834
ECCENTRICITY   = .00018548
INCLINATION    = 97.2855
RA_OF_ASC_NODE = 56.1971
ARG_OF_PERICENTER = 86.3990
MEAN_ANOMALY   = 95.8264

EPHEMERIS_TYPE = 0
CLASSIFICATION_TYPE = U
NORAD_CAT_ID   = 68106
ELEMENT_SET_NO = 999
REV_AT_EPOCH   = 557
BSTAR          = -.4361341E-1
MEAN_MOTION_DOT = -.1919909E-1
MEAN_MOTION_DDOT = 0

CCSDS_OMM_VERS = 2.0
CREATION_DATE  = 
ORIGINATOR     = 

OBJECT_NAME    = STARLINK-37005
OBJECT_ID      = 2026-044G
CENTER_NAME    = EARTH
REF_FRAME      = TEME
TIME_SYSTEM    = UTC
MEAN_ELEMENT_THEORY = SGP/SGP4

EPOCH          = 2026-04-04T22:00:01.999584
MEAN_MOTION    = 15.45285947
ECCENTRICITY   = .00017956
INCLINATION    = 97.2850
RA_OF_ASC_NODE = 56.1832
ARG_OF_PERICENTER = 66.5905
MEAN_ANOMALY   = 80.2115

EPHEMERIS_TYPE = 0
CLASSIFICATION_TYPE = U
NORAD_CAT_ID   = 68107
ELEMENT_SET_NO = 999
REV_AT_EPOCH   = 557
BSTAR          = -.44438175E-1
MEAN_MOTION_DOT = -.1897573E-1
MEAN_MOTION_DDOT = 0

CCSDS_OMM_VERS = 2.0
CREATION_DATE  = 
ORIGINATOR     = 

OBJECT_NAME    = STARLINK-37017
OBJECT_ID      = 2026-044H
CENTER_NAME    = EARTH
REF_FRAME      = TEME
TIME_SYSTEM    = UTC
MEAN_ELEMENT_THEORY = SGP/SGP4

EPOCH          = 2026-04-04T22:00:01.999584
MEAN_MOTION    = 15.46087574
ECCENTRICITY   = .00022957
INCLINATION    = 97.2856
RA_OF_ASC_NODE = 56.2061
ARG_OF_PERICENTER = 92.1161
MEAN_ANOMALY   = 106.4009

EPHEMERIS_TYPE = 0
CLASSIFICATION_TYPE = U
NORAD_CAT_ID   = 68108
ELEMENT_SET_NO = 999
REV_AT_EPOCH   = 557
BSTAR          = -.43758936E-1
MEAN_MOTION_DOT = -.1918743E-1
MEAN_MOTION_DDOT = 0

CCSDS_OMM_VERS = 2.0
CREATION_DATE  = 
ORIGINATOR     = 

OBJECT_NAME    = STARLINK-36833
OBJECT_ID      = 2026-044J
CENTER_NAME    = EARTH
REF_FRAME      = TEME
TIME_SYSTEM    = UTC
MEAN_ELEMENT_THEORY = SGP/SGP4

EPOCH          = 2026-04-04T22:00:01.999584
MEAN_MOTION    = 15.46978375
ECCENTRICITY   = .00021362
INCLINATION    = 97.2855
RA_OF_ASC_NODE = 56.2138
ARG_OF_PERICENTER = 91.8447
MEAN_ANOMALY   = 126.4461

EPHEMERIS_TYPE = 0
CLASSIFICATION_TYPE = U
NORAD_CAT_ID   = 68109
ELEMENT_SET_NO = 999
REV_AT_EPOCH   = 561
BSTAR          = -.42768904E-1
MEAN_MOTION_DOT = -.1932403E-1
MEAN_MOTION_DDOT = 0

CCSDS_OMM_VERS = 2.0
CREATION_DATE  = 
ORIGINATOR     = 

OBJECT_NAME    = STARLINK-36830
OBJECT_ID      = 2026-044K
CENTER_NAME    = EARTH
REF_FRAME      = TEME
TIME_SYSTEM    = UTC
MEAN_ELEMENT_THEORY = SGP/SGP4

EPOCH          = 2026-04-04T22:00:01.999584
MEAN_MOTION    = 15.46398705
ECCENTRICITY   = .00022197
INCLINATION    = 97.2852
RA_OF_ASC_NODE = 56.2108
ARG_OF_PERICENTER = 88.8470
MEAN_ANOMALY   = 121.2958

EPHEMERIS_TYPE = 0
CLASSIFICATION_TYPE = U
NORAD_CAT_ID   = 68110
ELEMENT_SET_NO = 999
REV_AT_EPOCH   = 561
BSTAR          = -.43308458E-1
MEAN_MOTION_DOT = -.1919386E-1
MEAN_MOTION_DDOT = 0

CCSDS_OMM_VERS = 2.0
CREATION_DATE  = 
ORIGINATOR     = 

OBJECT_NAME    = STARLINK-36791
OBJECT_ID      = 2026-044L
CENTER_NAME    = EARTH
REF_FRAME      = TEME
TIME_SYSTEM    = UTC
MEAN_ELEMENT_THEORY = SGP/SGP4

EPOCH          = 2026-04-04T22:00:01.999584
MEAN_MOTION    = 15.46854367
ECCENTRICITY   = .00020744
INCLINATION    = 97.2852
RA_OF_ASC_NODE = 56.2214
ARG_OF_PERICENTER = 99.6717
MEAN_ANOMALY   = 134.8142

EPHEMERIS_TYPE = 0
CLASSIFICATION_TYPE = U
NORAD_CAT_ID   = 68111
ELEMENT_SET_NO = 999
REV_AT_EPOCH   = 557
BSTAR          = -.41485591E-1
MEAN_MOTION_DOT = -.1872836E-1
MEAN_MOTION_DDOT = 0

CCSDS_OMM_VERS = 2.0
CREATION_DATE  = 
ORIGINATOR     = 

OBJECT_NAME    = STARLINK-36893
OBJECT_ID      = 2026-044M
CENTER_NAME    = EARTH
REF_FRAME      = TEME
TIME_SYSTEM    = UTC
MEAN_ELEMENT_THEORY = SGP/SGP4

EPOCH          = 2026-04-04T22:00:01.999584
MEAN_MOTION    = 15.47160020
ECCENTRICITY   = .00022023
INCLINATION    = 97.2850
RA_OF_ASC_NODE = 56.2256
ARG_OF_PERICENTER = 93.7199
MEAN_ANOMALY   = 152.7939

EPHEMERIS_TYPE = 0
CLASSIFICATION_TYPE = U
NORAD_CAT_ID   = 68112
ELEMENT_SET_NO = 999
REV_AT_EPOCH   = 561
BSTAR          = -.42210929E-1
MEAN_MOTION_DOT = -.1920631E-1
MEAN_MOTION_DDOT = 0

