{"fetched_at":"2026-04-05T12:57:33Z","count":17389,"tles":[{"name":"STARLINK-37046","line1":"1 68102U 26044B   26094.91668981 -.01901353  00000+0 -45307-1 0  9995","line2":"2 68102  97.2853  56.1738 0002059  76.7885  45.0014 15.44782681  5612","category":"Starlink"},{"name":"STARLINK-37018","line1":"1 68103U 26044C   26094.91668981 -.01906933  00000+0 -45299-1 0  9995","line2":"2 68103  97.2854  56.1800 0001899  77.0349  58.7983 15.44884698  5576","category":"Starlink"},{"name":"STARLINK-37041","line1":"1 68104U 26044D   26094.91668981 -.01904711  00000+0 -44646-1 0  9993","line2":"2 68104  97.2856  56.1911 0002210  86.5911  75.4290 15.45267557  5577","category":"Starlink"},{"name":"STARLINK-37021","line1":"1 68105U 26044E   26094.91668981 -.01970080  00000+0 -40737-1 0  9993","line2":"2 68105  97.2852  56.1755 0001972  85.9672  48.1943 15.48986709  5573","category":"Starlink"},{"name":"STARLINK-37024","line1":"1 68106U 26044F   26094.91668981 -.01919909  00000+0 -43613-1 0  9993","line2":"2 68106  97.2855  56.1971 0001854  86.3990  95.8264 15.46207834  5572","category":"Starlink"},{"name":"STARLINK-37005","line1":"1 68107U 26044G   26094.91668981 -.01897573  00000+0 -44438-1 0  9992","line2":"2 68107  97.2850  56.1832 0001795  66.5905  80.2115 15.45285947  5577","category":"Starlink"},{"name":"STARLINK-37017","line1":"1 68108U 26044H   26094.91668981 -.01918743  00000+0 -43759-1 0  9991","line2":"2 68108  97.2856  56.2061 0002295  92.1161 106.4009 15.46087574  5574","category":"Starlink"},{"name":"STARLINK-36833","line1":"1 68109U 26044J   26094.91668981 -.01932403  00000+0 -42769-1 0  9991","line2":"2 68109  97.2855  56.2138 0002136  91.8447 126.4461 15.46978375  5613","category":"Starlink"},{"name":"STARLINK-36830","line1":"1 68110U 26044K   26094.91668981 -.01919386  00000+0 -43308-1 0  9998","line2":"2 68110  97.2852  56.2108 0002219  88.8470 121.2958 15.46398705  5610","category":"Starlink"},{"name":"STARLINK-36791","line1":"1 68111U 26044L   26094.91668981 -.01872836  00000+0 -41486-1 0  9992","line2":"2 68111  97.2852  56.2214 0002074  99.6717 134.8142 15.46854367  5573","category":"Starlink"},{"name":"STARLINK-36893","line1":"1 68112U 26044M   26094.91668981 -.01920631  00000+0 -42211-1 0  9997","line2":"2 68112  97.2850  56.2256 0002202  93.7199 152.7939 15.47160020  5615","category":"Starlink"},{"name":"STARLINK-37022","line1":"1 68101U 26044A   26094.91668981 -.01917735  00000+0 -45374-1 0  9999","line2":"2 68101  97.2852  56.1659 0001583  91.8766  12.6640 15.45023050  5613","category":"Starlink"}]}